{
  "norad_id": 56745,
  "name": "SNIPE 2",
  "history": [
    {
      "epoch": "2026-04-10T06:10:22.163808Z",
      "apogee_km": 438.33159398578755,
      "perigee_km": 432.66660066175064,
      "latitude_deg": 4.717936453137164e-05,
      "longitude_deg": 15.74270524868398,
      "height_km": 440.52822401767423,
      "semi_major_axis_km": 6813.636097323769,
      "eccentricity": 0.00041571,
      "inclination_deg": 97.5332,
      "raan_deg": 306.8287,
      "arg_perigee_deg": 227.702,
      "mean_anomaly_deg": 132.3876,
      "mean_motion_rev_day": 15.43598541
    },
    {
      "epoch": "2026-04-11T21:04:02.534304Z",
      "apogee_km": 438.19559114021285,
      "perigee_km": 432.36194455978057,
      "latitude_deg": -2.9679314484294395e-05,
      "longitude_deg": 152.40445951687406,
      "height_km": 440.6036788658341,
      "semi_major_axis_km": 6813.415767849997,
      "eccentricity": 0.0004281,
      "inclination_deg": 97.5329,
      "raan_deg": 308.506,
      "arg_perigee_deg": 220.977,
      "mean_anomaly_deg": 139.1156,
      "mean_motion_rev_day": 15.43673416
    },
    {
      "epoch": "2026-04-13T07:17:35.567232Z",
      "apogee_km": 438.1190628457007,
      "perigee_km": 432.1480487959916,
      "latitude_deg": -1.7330077316162052e-06,
      "longitude_deg": -0.912787283864273,
      "height_km": 440.6847250900622,
      "semi_major_axis_km": 6813.270555820846,
      "eccentricity": 0.00043819,
      "inclination_deg": 97.5327,
      "raan_deg": 309.982,
      "arg_perigee_deg": 215.566,
      "mean_anomaly_deg": 144.5296,
      "mean_motion_rev_day": 15.43722767
    },
    {
      "epoch": "2026-04-14T20:37:45.798240Z",
      "apogee_km": 438.0750397121292,
      "perigee_km": 431.9309500647396,
      "latitude_deg": 1.0618797779125805e-05,
      "longitude_deg": 159.121441365091,
      "height_km": 440.81291464844634,
      "semi_major_axis_km": 6813.139994888435,
      "eccentricity": 0.0004509,
      "inclination_deg": 97.5322,
      "raan_deg": 311.5922,
      "arg_perigee_deg": 208.9723,
      "mean_anomaly_deg": 151.1275,
      "mean_motion_rev_day": 15.43767141
    },
    {
      "epoch": "2026-04-15T19:57:50.193216Z",
      "apogee_km": 438.0657246359806,
      "perigee_km": 431.7759096591908,
      "latitude_deg": -4.730961477881716e-05,
      "longitude_deg": 169.15112237192147,
      "height_km": 440.8926211266086,
      "semi_major_axis_km": 6813.057817147585,
      "eccentricity": 0.0004616,
      "inclination_deg": 97.5317,
      "raan_deg": 312.5985,
      "arg_perigee_deg": 205.0257,
      "mean_anomaly_deg": 155.0767,
      "mean_motion_rev_day": 15.43795072
    },
    {
      "epoch": "2026-04-16T20:51:13.285728Z",
      "apogee_km": 438.0247917239167,
      "perigee_km": 431.6424008693066,
      "latitude_deg": 5.268905096866808e-05,
      "longitude_deg": 155.85620677864395,
      "height_km": 440.94264399496274,
      "semi_major_axis_km": 6812.970596296612,
      "eccentricity": 0.0004684,
      "inclination_deg": 97.5312,
      "raan_deg": 313.672,
      "arg_perigee_deg": 200.5972,
      "mean_anomaly_deg": 159.5088,
      "mean_motion_rev_day": 15.43824718
    },
    {
      "epoch": "2026-04-17T23:17:54.750912Z",
      "apogee_km": 437.98565789305485,
      "perigee_km": 431.4868580922557,
      "latitude_deg": 3.0218046135343658e-05,
      "longitude_deg": 119.2375880470343,
      "height_km": 440.9743881307502,
      "semi_major_axis_km": 6812.873257992655,
      "eccentricity": 0.00047695,
      "inclination_deg": 97.5309,
      "raan_deg": 314.8122,
      "arg_perigee_deg": 196.4382,
      "mean_anomaly_deg": 163.6712,
      "mean_motion_rev_day": 15.43857804
    },
    {
      "epoch": "2026-04-18T21:04:34.122144Z",
      "apogee_km": 437.946492867547,
      "perigee_km": 431.297240213803,
      "latitude_deg": -2.5750627100476198e-05,
      "longitude_deg": 152.61807425153336,
      "height_km": 440.9861348877636,
      "semi_major_axis_km": 6812.758866540675,
      "eccentricity": 0.000488,
      "inclination_deg": 97.5306,
      "raan_deg": 315.7511,
      "arg_perigee_deg": 192.7236,
      "mean_anomaly_deg": 167.3889,
      "mean_motion_rev_day": 15.43896688
    },
    {
      "epoch": "2026-04-19T20:24:31.055616Z",
      "apogee_km": 437.8710966209719,
      "perigee_km": 431.1020738266925,
      "latitude_deg": -1.9540804400669046e-05,
      "longitude_deg": 162.67851859802835,
      "height_km": 440.94636021175126,
      "semi_major_axis_km": 6812.6235852238315,
      "eccentricity": 0.0004968,
      "inclination_deg": 97.5306,
      "raan_deg": 316.757,
      "arg_perigee_deg": 189.4312,
      "mean_anomaly_deg": 170.6843,
      "mean_motion_rev_day": 15.43942675
    },
    {
      "epoch": "2026-04-20T15:04:26.929344Z",
      "apogee_km": 437.797791843298,
      "perigee_km": 430.9860804106429,
      "latitude_deg": -3.424573836748264e-05,
      "longitude_deg": -117.26585393330588,
      "height_km": 440.895044184294,
      "semi_major_axis_km": 6812.52893612697,
      "eccentricity": 0.00049994,
      "inclination_deg": 97.5307,
      "raan_deg": 317.562,
      "arg_perigee_deg": 186.7339,
      "mean_anomaly_deg": 173.3842,
      "mean_motion_rev_day": 15.43974851
    },
    {
      "epoch": "2026-04-21T20:37:37.284384Z",
      "apogee_km": 437.73801817390176,
      "perigee_km": 430.71583343917973,
      "latitude_deg": -2.3498721675819182e-05,
      "longitude_deg": 159.50160207413717,
      "height_km": 440.85510032016595,
      "semi_major_axis_km": 6812.3639258065405,
      "eccentricity": 0.0005154,
      "inclination_deg": 97.531,
      "raan_deg": 318.8363,
      "arg_perigee_deg": 182.4611,
      "mean_anomaly_deg": 177.6612,
      "mean_motion_rev_day": 15.44030949
    },
    {
      "epoch": "2026-04-22T19:57:26.868672Z",
      "apogee_km": 437.67000030891086,
      "perigee_km": 430.53622246426767,
      "latitude_deg": 4.6128889998248537e-05,
      "longitude_deg": 169.5929422037042,
      "height_km": 440.7894383137283,
      "semi_major_axis_km": 6812.240111386589,
      "eccentricity": 0.0005236,
      "inclination_deg": 97.5312,
      "raan_deg": 319.8424,
      "arg_perigee_deg": 179.0556,
      "mean_anomaly_deg": 181.0703,
      "mean_motion_rev_day": 15.44073044
    },
    {
      "epoch": "2026-04-23T14:37:17.027904Z",
      "apogee_km": 437.60124186822577,
      "perigee_km": 430.4250504182719,
      "latitude_deg": -4.117045250076979e-05,
      "longitude_deg": -110.32724510717821,
      "height_km": 440.7130405000613,
      "semi_major_axis_km": 6812.150146143248,
      "eccentricity": 0.00052672,
      "inclination_deg": 97.5313,
      "raan_deg": 320.6477,
      "arg_perigee_deg": 176.2255,
      "mean_anomaly_deg": 183.9033,
      "mean_motion_rev_day": 15.44103632
    }
  ]
}